*******************************************************************************
Ephemeris / WWW_USER Tue Mar 27 20:14:07 2018 Pasadena, USA      / Horizons    
*******************************************************************************
Target body name: Mimas (601)                     {source: sat389}
Center body name: Solar System Barycenter (0)     {source: DE431mx}
Center-site name: BODY CENTER
*******************************************************************************
Start time      : A.D. 2000-Jan-01 00:00:00.0000 TDB
Stop  time      : A.D. 2010-Jan-01 00:00:00.0000 TDB
Step-size       : 7200 minutes
*******************************************************************************
Center geodetic : 0.00000000,0.00000000,0.0000000 {E-lon(deg),Lat(deg),Alt(km)}
Center cylindric: 0.00000000,0.00000000,0.0000000 {E-lon(deg),Dxy(km),Dz(km)}
Center radii    : (undefined)                                                  
Output units    : AU-D                                                         
Output type     : GEOMETRIC cartesian states
Output format   : 2 (position and velocity)
Reference frame : ICRF/J2000.0                                                 
Coordinate systm: Ecliptic and Mean Equinox of Reference Epoch                 
*******************************************************************************
JDTDB
   X     Y     Z
   VX    VY    VZ
*******************************************************************************
$$SOE
2453434.500000000 = A.D. 2005-Mar-05 00:00:00.0000 TDB 
  -3.920952340099960E+00  8.169729829667526E+00  1.446081502659841E-02
   2.823954895762544E-03 -1.570741185896661E-03 -8.701824979542670E-04
2453439.500000000 = A.D. 2005-Mar-10 00:00:00.0000 TDB 
  -3.946695901673007E+00  8.159141066526457E+00  1.478202847625102E-02
  -9.572802446707263E-03  4.058468972481977E-03 -3.001635995253127E-03
2453444.500000000 = A.D. 2005-Mar-15 00:00:00.0000 TDB 
  -3.975298703387012E+00  8.147091490974404E+00  1.610676518120969E-02
  -1.045413706937666E-02 -7.822530618191480E-03  3.672173225334135E-03
2453449.500000000 = A.D. 2005-Mar-20 00:00:00.0000 TDB 
  -4.001321616259720E+00  8.133041806357523E+00  1.828878610961115E-02
   2.294404107412407E-03 -5.301833668292571E-03  1.165894322613794E-03
2453454.500000000 = A.D. 2005-Mar-25 00:00:00.0000 TDB 
  -4.026142880076000E+00  8.121554923758996E+00  1.889120218937903E-02
  -5.190623593513174E-03  4.849053114311671E-03 -3.853053194331001E-03
2453459.500000000 = A.D. 2005-Mar-30 00:00:00.0000 TDB 
  -4.054274271527708E+00  8.110145846091418E+00  1.970484874495330E-02
  -1.302025920275083E-02 -4.779485431142302E-03  2.240415676109074E-03
2453464.500000000 = A.D. 2005-Apr-04 00:00:00.0000 TDB 
  -4.081207232911120E+00  8.095887938656013E+00  2.196422752549207E-02
  -1.296037326012639E-04 -8.186234376267911E-03  2.929947105611530E-03
2453469.500000000 = A.D. 2005-Apr-09 00:00:00.0000 TDB 
  -4.105580859227141E+00  8.083266507490833E+00  2.301912360500289E-02
  -9.389198161621526E-04  3.461728185797936E-03 -3.529216256665174E-03
2453474.500000000 = A.D. 2005-Apr-14 00:00:00.0000 TDB 
  -4.132753886613707E+00  8.072192618241994E+00  2.343886446704586E-02
  -1.351033962643603E-02 -9.342680680962737E-04  1.790998329645859E-04
2453479.500000000 = A.D. 2005-Apr-19 00:00:00.0000 TDB 
  -4.160479726918399E+00  8.058181618819701E+00  2.552249229561372E-02
  -3.832079055462144E-03 -9.638859249198323E-03  4.056784684191000E-03
2453484.500000000 = A.D. 2005-Apr-24 00:00:00.0000 TDB 
  -4.184935676924198E+00  8.044435856011177E+00  2.707615730472247E-02
   1.935362497669961E-03  4.736812372870914E-04 -2.218943790568850E-03
2453489.500000000 = A.D. 2005-Apr-29 00:00:00.0000 TDB 
  -4.210917889908963E+00  8.033213074051213E+00  2.733869054541033E-02
  -1.155595815947071E-02  2.530363956512144E-03 -1.920146679136199E-03
2453494.500000000 = A.D. 2005-May-04 00:00:00.0000 TDB 
  -4.239061177650105E+00  8.019800761643626E+00  2.902253558295767E-02
  -8.022633311786183E-03 -9.278653136569245E-03  4.268583566628256E-03
2453499.500000000 = A.D. 2005-May-09 00:00:00.0000 TDB 
  -4.264061649079519E+00  8.005155419677333E+00  3.100175494354399E-02
   2.851183371129123E-03 -3.196480583615074E-03 -3.536292758672066E-04
2453504.500000000 = A.D. 2005-May-14 00:00:00.0000 TDB 
  -4.288941454129464E+00  7.993292790276374E+00  3.137860346570945E-02
  -7.756802024781502E-03  4.428303754249003E-03 -3.367288982064558E-03
2453509.500000000 = A.D. 2005-May-19 00:00:00.0000 TDB 
  -4.316942869676965E+00  7.980600254123026E+00  3.254241147037524E-02
  -1.163487784836430E-02 -7.016137618724585E-03  3.410296468924543E-03
2453514.500000000 = A.D. 2005-May-24 00:00:00.0000 TDB 
  -4.342794686740054E+00  7.965446138356514E+00  3.477137834394346E-02
   1.742737821644071E-03 -6.690638845543597E-03  1.621021850418445E-03
2453519.500000000 = A.D. 2005-May-29 00:00:00.0000 TDB 
  -4.366915343530427E+00  7.952590723057667E+00  3.548580826414076E-02
  -3.403764061194955E-03  4.252301360817387E-03 -3.765109507379884E-03
2453524.500000000 = A.D. 2005-Jun-03 00:00:00.0000 TDB 
  -4.394210655341372E+00  7.940444994893668E+00  3.616457335176529E-02
  -1.347178091196467E-02 -3.363669025090931E-03  1.629776529972969E-03
2453529.500000000 = A.D. 2005-Jun-08 00:00:00.0000 TDB 
  -4.420979297725595E+00  7.925268909478264E+00  3.839277672992607E-02
  -1.163920751209236E-03 -9.242843200623102E-03  3.281802316527470E-03
2453534.500000000 = A.D. 2005-Jun-13 00:00:00.0000 TDB 
  -4.444821850066908E+00  7.911270195392523E+00  3.957469967393706E-02
   2.852284828682388E-04  2.252905888554014E-03 -3.126894381194234E-03
2453539.500000000 = A.D. 2005-Jun-18 00:00:00.0000 TDB 
  -4.471036263116797E+00  7.899269289076512E+00  3.994370770626116E-02
  -1.283385689892882E-02  5.015724601101808E-04 -5.227901789065445E-04
2453544.500000000 = A.D. 2005-Jun-23 00:00:00.0000 TDB 
  -4.498486200446211E+00  7.884527373631192E+00  4.190615234343972E-02
  -5.296099160392342E-03 -1.013472288663828E-02  4.195628123749137E-03
2453549.500000000 = A.D. 2005-Jun-28 00:00:00.0000 TDB 
  -4.522565909545004E+00  7.869453426618889E+00  4.357403666971320E-02
   2.526346613343981E-03 -9.649204450448391E-04 -1.696166856739998E-03
2453554.500000000 = A.D. 2005-Jul-03 00:00:00.0000 TDB 
  -4.547608358578531E+00  7.857115059606230E+00  4.387952754662969E-02
  -1.002563033563093E-02  3.316833703686691E-03 -2.348622448890266E-03
2453559.500000000 = A.D. 2005-Jul-08 00:00:00.0000 TDB 
  -4.575248105349035E+00  7.843073237373062E+00  4.538506138984927E-02
  -9.558832013398610E-03 -8.917797961450815E-03  4.015611152325172E-03
2453564.500000000 = A.D. 2005-Jul-13 00:00:00.0000 TDB 
  -4.600009902481195E+00  7.827211207912029E+00  4.743568101206146E-02
   2.865778330666214E-03 -4.697008853374268E-03  2.014612715490729E-04
2453569.500000000 = A.D. 2005-Jul-18 00:00:00.0000 TDB 
  -4.624053682887057E+00  7.814106011650091E+00  4.792239965522869E-02
  -6.046826679939291E-03  4.382642532908170E-03 -3.376114704742886E-03
2453574.500000000 = A.D. 2005-Jul-23 00:00:00.0000 TDB 
  -4.651303103283492E+00  7.800744478123062E+00  4.892096931409384E-02
  -1.254741217077327E-02 -5.858982314961728E-03  2.735874187741801E-03
2453579.500000000 = A.D. 2005-Jul-28 00:00:00.0000 TDB 
  -4.676990658135761E+00  7.784558272919540E+00  5.113837093515864E-02
   1.099831890687999E-03 -8.107721492090061E-03  2.150561965245419E-03
2453584.500000000 = A.D. 2005-Aug-02 00:00:00.0000 TDB 
  -4.700410929804543E+00  7.770391025237739E+00  5.200064926769316E-02
  -1.958145930530549E-03  3.605436462752211E-03 -3.449377302404876E-03
2453589.500000000 = A.D. 2005-Aug-07 00:00:00.0000 TDB 
  -4.726793698357871E+00  7.757434978041848E+00  5.258672078895387E-02
  -1.329887076355469E-02 -1.999645173812316E-03  8.014559390691761E-04
2453594.500000000 = A.D. 2005-Aug-12 00:00:00.0000 TDB 
  -4.753340449735443E+00  7.741438205139397E+00  5.469734427516530E-02
  -2.512098247987509E-03 -1.021278147238125E-02  3.614085101242840E-03
2453599.500000000 = A.D. 2005-Aug-17 00:00:00.0000 TDB 
  -4.776645293867944E+00  7.726108070111565E+00  5.604115107864559E-02
   1.359913384892143E-03  1.217039571402842E-03 -2.604062135876993E-03
2453604.500000000 = A.D. 2005-Aug-22 00:00:00.0000 TDB 
  -4.801901169818488E+00  7.713137602288676E+00  5.640716166927875E-02
  -1.178071494010877E-02  1.449060690411417E-03 -1.156739500094409E-03
2453609.500000000 = A.D. 2005-Aug-27 00:00:00.0000 TDB 
  -4.828937467837544E+00  7.697717048215245E+00  5.817256998636570E-02
  -6.969340103865031E-03 -1.022751272169047E-02  4.083846255209326E-03
2453614.500000000 = A.D. 2005-Sep-01 00:00:00.0000 TDB 
  -4.852662079005421E+00  7.681370186011948E+00  5.997812285861020E-02
   3.131780223737753E-03 -2.332145035774990E-03 -1.000609646856753E-03
2453619.500000000 = A.D. 2005-Sep-06 00:00:00.0000 TDB 
  -4.876774603334801E+00  7.667927662436468E+00  6.036049696794952E-02
  -8.606156981959842E-03  3.660048264587300E-03 -2.642376398147402E-03
2453624.500000000 = A.D. 2005-Sep-11 00:00:00.0000 TDB 
  -4.903765544770135E+00  7.653222518641204E+00  6.165443195393801E-02
  -1.079814590064891E-02 -8.130840160855558E-03  3.399153912341865E-03
2453629.500000000 = A.D. 2005-Sep-16 00:00:00.0000 TDB 
  -4.928309029429932E+00  7.636246943836042E+00  6.376296746588349E-02
   2.724400119931393E-03 -6.247889444412810E-03  1.010021928546488E-03
2453634.500000000 = A.D. 2005-Sep-21 00:00:00.0000 TDB 
  -4.951502984899387E+00  7.621923708058225E+00  6.439611472817064E-02
  -4.572214197691795E-03  4.219640612884058E-03 -3.358874163120863E-03
2453639.500000000 = A.D. 2005-Sep-26 00:00:00.0000 TDB 
  -4.977921483492509E+00  7.607817963767151E+00  6.522612626058512E-02
  -1.285972696718196E-02 -4.715918557164231E-03  1.855779320947380E-03
